[{"OBJECT_NAME":"STARLINK-33657","OBJECT_ID":"2025-063H","EPOCH":"2026-03-09T22:04:35.307840","MEAN_MOTION":15.30209803,"ECCENTRICITY":0.0001778,"INCLINATION":53.16,"RA_OF_ASC_NODE":51.4694,"ARG_OF_PERICENTER":64.4435,"MEAN_ANOMALY":295.6749,"EPHEMERIS_TYPE":0,"CLASSIFICATION_TYPE":"U","NORAD_CAT_ID":63370,"ELEMENT_SET_NO":999,"REV_AT_EPOCH":5474,"BSTAR":0.00090751712,"MEAN_MOTION_DOT":0.00026624,"MEAN_MOTION_DDOT":0},{"OBJECT_NAME":"CZ-2D R\/B","OBJECT_ID":"2022-004B","EPOCH":"2026-03-09T22:50:52.634112","MEAN_MOTION":14.60339325,"ECCENTRICITY":0.04874226,"INCLINATION":98.4783,"RA_OF_ASC_NODE":157.6846,"ARG_OF_PERICENTER":297.671,"MEAN_ANOMALY":57.5829,"EPHEMERIS_TYPE":0,"CLASSIFICATION_TYPE":"U","NORAD_CAT_ID":51103,"ELEMENT_SET_NO":999,"REV_AT_EPOCH":21718,"BSTAR":0.00037005679,"MEAN_MOTION_DOT":0.00010482,"MEAN_MOTION_DDOT":0}]
